ONEWEB-0687             
1 61595U 24188B   25025.81802673 -.00014150  00000+0 -17322-2 0  9997
2 61595  86.5762 128.6168 0002606 214.2700 145.8355 14.83444288 17436
ONEWEB-0688             
1 61596U 24188C   25025.82138837  .00005796  00000+0  70305-3 0  9998
2 61596  86.5798 128.6397 0002515 209.8029 150.3051 14.83430523 17434
ONEWEB-0689             
1 61597U 24188D   25025.91668981 -.00861088  00000+0 -23270+0 0  9998
2 61597  86.7839 129.0041 0000566 184.2532 209.4661 14.50718162 15548
ONEWEB-0690             
1 61598U 24188E   25025.91668981 -.00538284  00000+0 -12444+0 0  9999
2 61598  86.7831 129.0523 0004370 209.1393 249.5152 14.57608849 15520
ONEWEB-0691             
1 61599U 24188F   25025.91668981 -.00847968  00000+0 -21969+0 0  9994
2 61599  86.7886 129.0661 0003508 208.6264 324.3283 14.52646615  5497
ONEWEB-0692             
1 61600U 24188G   25025.91668981 -.00796825  00000+0 -21381+0 0  9990
2 61600  86.7929 129.0472 0000671 241.4023 145.2579 14.51298660 15631
ONEWEB-0693             
1 61601U 24188H   25025.75433100  .00008298  00000+0  10061-2 0  9990
2 61601  86.5711 128.5778 0000633 165.1289 194.9953 14.83494602 17421
ONEWEB-0695             
1 61602U 24188J   25025.91668981 -.00791759  00000+0 -21235+0 0  9991
2 61602  86.7850 129.0528 0000977 163.6373 235.1905 14.51300661 15660
